#cP2019  4 15  0  0  0.00000000      96 ORBIT IGS14 HLM  IGS
## 2049  86400.00000000   900.00000000 58588 0.0000000000000
+   32   G01G02G03G04G05G06G07G08G09G10G11G12G13G14G15G16G17
+        G18G19G20G21G22G23G24G25G26G27G28G29G30G31G32  0  0
+          0  0  0  0  0  0  0  0  0  0  0  0  0  0  0  0  0
+          0  0  0  0  0  0  0  0  0  0  0  0  0  0  0  0  0
+          0  0  0  0  0  0  0  0  0  0  0  0  0  0  0  0  0
++         2  2  2  5  2  2  2  2  2  2  2  2  2  2  2  2  2
++         2  2  2  2  2  2  2  2  2  2  2  2  2  2  2  0  0
++         0  0  0  0  0  0  0  0  0  0  0  0  0  0  0  0  0
++         0  0  0  0  0  0  0  0  0  0  0  0  0  0  0  0  0
++         0  0  0  0  0  0  0  0  0  0  0  0  0  0  0  0  0
%c G  cc GPS ccc cccc cccc cccc cccc ccccc ccccc ccccc ccccc
%c cc cc ccc ccc cccc cccc cccc cccc ccccc ccccc ccccc ccccc
%f  1.2500000  1.025000000  0.00000000000  0.000000000000000
%f  0.0000000  0.000000000  0.00000000000  0.000000000000000
%i    0    0    0    0      0      0      0      0         0
%i    0    0    0    0      0      0      0      0         0
/* FINAL ORBIT COMBINATION FROM WEIGHTED AVERAGE OF:        
/* cod emr esa gfz grg jpl mit ngs sio                      
/* REFERENCED TO IGS TIME (IGST) AND TO WEIGHTED MEAN POLE: 
/* PCV:IGS14_2045 OL/AL:FES2004  NONE     Y  ORB:CMB CLK:CMB
*  2019  4 15  6 45  0.00000000
PG01 -12925.856406  22166.269889  -6339.898683   -202.156714  5  6  1  67       
PG02  19663.496590 -10752.806059 -13521.808274   -189.401188  4  5  5  93       
PG03  -9287.444148  13294.205988 -21052.602303    188.222771  5  5  6  91       
PG04  10793.068828  23995.018393   3651.287893 999999.999999
PG05  24802.718739  -3085.504491   9166.423014      1.124972  5  6  6  72       
PG06  16353.513965   2291.541364 -20762.447698    230.380316  4  4  3 100       
PG07  -1163.931349  20160.662276  17255.011685     -5.135894  5  8  4  95       
PG08  -9125.943353  14649.858776  20167.686910   -139.972416  5  6  7  97       
PG09   7750.890211  25259.322021  -2695.812937    428.543521  5  8  7  89       
PG10 -21473.061542 -11360.491635  11027.193875     72.443138  4  8  1  96       
PG11  -9030.292348  24803.427145   3416.078826   -626.187390  5  8  3  86       
PG12  10623.765963 -12065.404547 -21320.456136    251.139366  5  8  5 102       
PG13  13931.650739  -5927.395412  21707.069296    -67.729027     5  2  98       
PG14 -16088.441145 -10934.246409 -17852.344906    -84.424803  3  6  5  67       
PG15   7457.910543 -16833.084545  18748.044025   -318.303840  3  7  3  86       
PG16 -24449.794945   1003.160077  10670.233359    -32.777388  2  7  5  91       
PG17  14081.076817  19071.020474 -11661.636613     39.293486  6  7  6  92       
PG18 -17305.374500  19770.714735   2845.664029     44.331480  6  6  5  93       
PG19  15694.481803  11389.445500 -18406.078801   -330.492871  7  4  6 104       
PG20 -13705.745184 -14008.085183  17886.320215    523.981158  6  9  6  87       
PG21  -4390.108837 -18077.732413  19814.390571   -212.100854  4  8  6  87       
PG22 -16988.694433  11081.327253 -16879.018627   -683.929111  5  7  6  69       
PG23  -1087.752294  22791.337682 -12917.792272   -190.144962  4  9  6  95       
PG24  14368.915166 -22026.501408  -2240.241954    -64.797244  5  6  4 100       
PG25  -3321.992313 -15533.396012 -21536.505281   -745.750714  3  6  6  94       
PG26 -26398.388079  -3703.806695    134.024944    176.375396     5  5  84       
PG27 -14677.526625   2764.039442  21880.795430   -108.811771  5  3  5  93       
PG28  19456.593142  13651.880749  12359.995435    767.454633  4  8  5 106       
PG29  -2561.308217 -25407.049018  -7337.136673    225.102944  6  9  7  91       
PG30   9144.460435  13000.897438  21278.373560    -86.803254  3  5     80       
PG31 -17576.432888  -1177.933968 -20004.798932     44.956181  5  4  4  95       
PG32 -16396.862401 -15699.576840 -13826.343528   -131.929510  4  7  6  98       
*  2019  4 15  7  0  0.00000000
PG01 -13445.804253  22455.189080  -3511.211206   -202.164130  5  6  1  71       
PG02  18858.324043  -9160.332532 -15604.666587   -189.409681  5  5  4 101       
PG03 -11604.984105  12893.398821 -20122.973126    188.222926  5  4  6  83       
PG04  10642.833739  24322.543726    811.500172 999999.999999
PG05  25678.810795  -2732.341360   6539.458033      1.125059  6  6  6  76       
PG06  14920.456557   4248.058023 -21515.147511    230.371786  5  4  3 101       
PG07  -2466.939010  21478.135173  15357.248365     -5.142512  6  8  5  96       
PG08 -10126.394676  12514.322297  21125.700927   -139.974235  5  6  7 100       
PG09   7317.359567  24939.699388  -5485.172912    428.537823  6  8  6  97       
PG10 -20078.165190 -11370.279963  13386.825119     72.434424  5  8     89       
PG11  -9270.525837  24134.184820   6080.058532   -626.181022  5  7  4  81       
PG12  12899.168669 -11528.506854 -20313.330572    251.136088  5  7  5 106       
PG13  14601.857204  -3507.178829  21795.574257    -67.727685  1  5  2  82       
PG14 -16548.624577 -12877.748108 -16095.626736    -84.423600  3  6  5  77       
PG15   8657.631180 -14886.106276  19867.258292   -318.302153  3  6  3  93       
PG16 -25473.151437    623.835071   8067.441431    -32.779814  3  7  5  93       
PG17  14329.235208  20295.204368  -9109.430856     39.298113  6  8  6  92       
PG18 -17230.528655  19161.793342   5639.205443     44.334506  6  6  5  98       
PG19  16139.896322  13291.710403 -16622.877751   -330.488946  7  5  6 102       
PG20 -11554.978949 -14136.382288  19232.022514    523.981807  6  9  6  88       
PG21  -3140.088123 -19691.644693  18418.632016   -212.094258  4  9  7  94       
PG22 -18847.826548  10722.670405 -15058.150355   -683.935392  5  7  6  76       
PG23  -1991.030182  21362.872860 -15060.272206   -190.143541  4  8  6  98       
PG24  14695.583546 -21895.950048    588.373220    -64.797405  5  6  3  91       
PG25   -903.145609 -15221.118937 -21973.908141   -745.754631  3  6  6 103       
PG26 -26226.451161  -3953.325239  -2688.509301    176.384328     5  5  69       
PG27 -15608.821744    453.151439  21429.726295   -108.819557  5  3  4  98       
PG28  18004.580905  13468.069776  14669.173535    767.454161  4  8  5 100       
PG29  -2087.045355 -24526.198095 -10008.983165    225.094698  6  9  8  74       
PG30   7536.978624  14795.556910  20711.927888    -86.809296  3  5     76       
PG31 -16148.851425  -3025.451925 -20951.424013     44.953698  5  3  4  89       
PG32 -16765.546873 -17122.610442 -11521.421475   -131.913579  4  7  6  90       
*  2019  4 15  7 15  0.00000000
PG01 -13765.757669  22502.213280   -621.058537   -202.171574  5  6  2  74       
PG02  18018.013122  -7333.516332 -17405.687347   -189.418306  6  4  4 107       
PG03 -13816.739793  12623.801968 -18847.380203    188.223149  5  4  6  83       
PG04  10379.182878  24362.825263  -2042.252151 999999.999999
PG05  26269.158786  -2440.630103   3800.916228      1.124836  6  6  6  96       
PG06  13559.142219   6333.027657 -21896.165955    230.363294  5  4  3  99       
PG07  -3572.599147  22674.488753  13193.987971     -5.149235  5  8  5 106       
PG08 -11278.011750  10358.456449  21720.215280   -139.975430  5  5  7  96       
PG09   6730.468868  24364.821742  -8180.164251    428.532076  6  8  6 103       
PG10 -18433.098608 -11435.402868  15519.054970     72.425705  5  8  1  94       
PG11  -9497.290949  23183.527606   8639.325753   -626.174521  5  7  5 103       
PG12  15071.813027 -11137.638854 -18961.426847    251.133308  5  6  5 103       
PG13  15395.529613  -1137.205223  21505.136849    -67.725964  2  5  3  80       
PG14 -17031.023875 -14589.668122 -14057.927018    -84.422257  4  6  5  87       
PG15   9998.965307 -12905.781124  20634.068966   -318.300284  4  4  3  89       
PG16 -26218.061203    352.838381   5328.357757    -32.782444  4  6  6  86       
PG17  14530.805462  21223.520826  -6398.648142     39.303285  6  9  5  88       
PG18 -17024.710755  18279.855246   8333.639071     44.337890  6  6  5 113       
PG19  16616.367253  14965.384416 -14558.443276   -330.484952  7  7  6  94       
PG20  -9277.828489 -14371.808187  20245.217821    523.981581  6  8  6  85       
PG21  -2059.809819 -21225.561314  16725.942493   -212.087341  5  9  7  75       
PG22 -20498.684406  10452.693776 -12973.400970   -683.941638  4  7  6  78       
PG23  -3065.532756  19773.449554 -16933.184345   -190.142126  4  8  6  77       
PG24  14861.073649 -21506.711736   3406.633591    -64.797250  5  6  3  88       
PG25   1559.571053 -15038.353393 -22041.021000   -745.758594  3  6  6 106       
PG26 -25752.646467  -4194.918528  -5465.277765    176.393377  2  5  5  72       
PG27 -16632.719073  -1735.158319  20608.057476   -108.827371  4  3  4  94       
PG28  16308.037870  13324.421987  16733.909370    767.454989  4  8  5  85       
PG29  -1454.038632 -23401.565351 -12508.798569    225.086299  6  9  9  80       
PG30   6068.473645  16600.721352  19788.530613    -86.815368  3  5  1  89       
PG31 -14767.015368  -5018.860032 -21540.156307     44.950920  5  3  5  86       
PG32 -17088.004641 -18279.823002  -9018.859699   -131.897633  3  7  6  67       
EOF
